KUIPER-00008            
1 63724U 25088A   25252.14291566  .00004726  00000+0  40616-3 0  9993
2 63724  51.8904 194.7236 0010652 204.6463 155.4000 14.99063754 20827
KUIPER-00009            
1 63725U 25088B   25252.26275316 -.00027460  00000+0 -35794-2 0  9994
2 63725  51.9017 188.8709 0011901 221.8587 138.1467 14.79972419 20919
KUIPER-00010            
1 63726U 25088C   25252.91668981 -.00793417  00000+0 -25350-1 0  9999
2 63726  51.8661 171.7923 0010141 236.9889 254.9362 15.34223912  5159
KUIPER-00011            
1 63727U 25088D   25252.91668981 -.00033085  00000+0 -16319-2 0  9994
2 63727  51.8677 173.8128 0011757 226.2835 262.2494 15.17202395  5335
KUIPER-00012            
1 63728U 25088E   25252.93478291 -.00083153  00000+0 -26278-2 0  9996
2 63728  51.8578 172.0619 0010276 240.6565 119.3393 15.32443314 20913
KUIPER-00013            
1 63729U 25088F   25252.26168366  .00010860  00000+0  14498-2 0  9996
2 63729  51.9018 190.3406 0008329 152.4833 207.6572 14.79959135 20705
KUIPER-00014            
1 63730U 25088G   25252.12497131  .00001951  00000+0  28494-3 0  9991
2 63730  51.9031 191.9107 0008401 212.0231 148.0221 14.79944430 20489
KUIPER-00015            
1 63731U 25088H   25252.27085491  .00002159  00000+0  30235-3 0  9997
2 63731  51.8992 203.3755 0010174 195.3857 164.6798 14.81322777 20793
