<?xml version="1.0" encoding="UTF-8"?>
<ndm xmlns:xsi="http://www.w3.org/2001/XMLSchema-instance" xsi:noNamespaceSchemaLocation="https://sanaregistry.org/r/ndmxml_unqualified/ndmxml-2.0.0-master-2.0.xsd">
<omm id="CCSDS_OMM_VERS" version="2.0">
<header><CREATION_DATE/><ORIGINATOR/></header><body><segment><metadata><OBJECT_NAME>KUIPER-00008</OBJECT_NAME><OBJECT_ID>2025-088A</OBJECT_ID><CENTER_NAME>EARTH</CENTER_NAME><REF_FRAME>TEME</REF_FRAME><TIME_SYSTEM>UTC</TIME_SYSTEM><MEAN_ELEMENT_THEORY>SGP4</MEAN_ELEMENT_THEORY></metadata><data><meanElements><EPOCH>2025-09-09T03:25:47.913024</EPOCH><MEAN_MOTION>14.99063754</MEAN_MOTION><ECCENTRICITY>.00106529</ECCENTRICITY><INCLINATION>51.8904</INCLINATION><RA_OF_ASC_NODE>194.7236</RA_OF_ASC_NODE><ARG_OF_PERICENTER>204.6463</ARG_OF_PERICENTER><MEAN_ANOMALY>155.4000</MEAN_ANOMALY></meanElements><tleParameters><EPHEMERIS_TYPE>0</EPHEMERIS_TYPE><CLASSIFICATION_TYPE>U</CLASSIFICATION_TYPE><NORAD_CAT_ID>63724</NORAD_CAT_ID><ELEMENT_SET_NO>999</ELEMENT_SET_NO><REV_AT_EPOCH>2082</REV_AT_EPOCH><BSTAR>.40615589E-3</BSTAR><MEAN_MOTION_DOT>.4726E-4</MEAN_MOTION_DOT><MEAN_MOTION_DDOT>0</MEAN_MOTION_DDOT></tleParameters></data></segment></body></omm>
<omm id="CCSDS_OMM_VERS" version="2.0">
<header><CREATION_DATE/><ORIGINATOR/></header><body><segment><metadata><OBJECT_NAME>KUIPER-00009</OBJECT_NAME><OBJECT_ID>2025-088B</OBJECT_ID><CENTER_NAME>EARTH</CENTER_NAME><REF_FRAME>TEME</REF_FRAME><TIME_SYSTEM>UTC</TIME_SYSTEM><MEAN_ELEMENT_THEORY>SGP4</MEAN_ELEMENT_THEORY></metadata><data><meanElements><EPOCH>2025-09-09T06:18:21.873024</EPOCH><MEAN_MOTION>14.79972419</MEAN_MOTION><ECCENTRICITY>.0011901</ECCENTRICITY><INCLINATION>51.9017</INCLINATION><RA_OF_ASC_NODE>188.8709</RA_OF_ASC_NODE><ARG_OF_PERICENTER>221.8587</ARG_OF_PERICENTER><MEAN_ANOMALY>138.1467</MEAN_ANOMALY></meanElements><tleParameters><EPHEMERIS_TYPE>0</EPHEMERIS_TYPE><CLASSIFICATION_TYPE>U</CLASSIFICATION_TYPE><NORAD_CAT_ID>63725</NORAD_CAT_ID><ELEMENT_SET_NO>999</ELEMENT_SET_NO><REV_AT_EPOCH>2091</REV_AT_EPOCH><BSTAR>-.35793651E-2</BSTAR><MEAN_MOTION_DOT>-.2746E-3</MEAN_MOTION_DOT><MEAN_MOTION_DDOT>0</MEAN_MOTION_DDOT></tleParameters></data></segment></body></omm>
<omm id="CCSDS_OMM_VERS" version="2.0">
<header><CREATION_DATE/><ORIGINATOR/></header><body><segment><metadata><OBJECT_NAME>KUIPER-00010</OBJECT_NAME><OBJECT_ID>2025-088C</OBJECT_ID><CENTER_NAME>EARTH</CENTER_NAME><REF_FRAME>TEME</REF_FRAME><TIME_SYSTEM>UTC</TIME_SYSTEM><MEAN_ELEMENT_THEORY>SGP4</MEAN_ELEMENT_THEORY></metadata><data><meanElements><EPOCH>2025-09-09T22:00:01.999584</EPOCH><MEAN_MOTION>15.34223912</MEAN_MOTION><ECCENTRICITY>.00101417</ECCENTRICITY><INCLINATION>51.8661</INCLINATION><RA_OF_ASC_NODE>171.7923</RA_OF_ASC_NODE><ARG_OF_PERICENTER>236.9889</ARG_OF_PERICENTER><MEAN_ANOMALY>254.9362</MEAN_ANOMALY></meanElements><tleParameters><EPHEMERIS_TYPE>0</EPHEMERIS_TYPE><CLASSIFICATION_TYPE>U</CLASSIFICATION_TYPE><NORAD_CAT_ID>63726</NORAD_CAT_ID><ELEMENT_SET_NO>999</ELEMENT_SET_NO><REV_AT_EPOCH>515</REV_AT_EPOCH><BSTAR>-.25349843E-1</BSTAR><MEAN_MOTION_DOT>-.793417E-2</MEAN_MOTION_DOT><MEAN_MOTION_DDOT>0</MEAN_MOTION_DDOT></tleParameters></data></segment></body></omm>
<omm id="CCSDS_OMM_VERS" version="2.0">
<header><CREATION_DATE/><ORIGINATOR/></header><body><segment><metadata><OBJECT_NAME>KUIPER-00011</OBJECT_NAME><OBJECT_ID>2025-088D</OBJECT_ID><CENTER_NAME>EARTH</CENTER_NAME><REF_FRAME>TEME</REF_FRAME><TIME_SYSTEM>UTC</TIME_SYSTEM><MEAN_ELEMENT_THEORY>SGP4</MEAN_ELEMENT_THEORY></metadata><data><meanElements><EPOCH>2025-09-09T22:00:01.999584</EPOCH><MEAN_MOTION>15.17202395</MEAN_MOTION><ECCENTRICITY>.00117572</ECCENTRICITY><INCLINATION>51.8677</INCLINATION><RA_OF_ASC_NODE>173.8128</RA_OF_ASC_NODE><ARG_OF_PERICENTER>226.2835</ARG_OF_PERICENTER><MEAN_ANOMALY>262.2494</MEAN_ANOMALY></meanElements><tleParameters><EPHEMERIS_TYPE>0</EPHEMERIS_TYPE><CLASSIFICATION_TYPE>U</CLASSIFICATION_TYPE><NORAD_CAT_ID>63727</NORAD_CAT_ID><ELEMENT_SET_NO>999</ELEMENT_SET_NO><REV_AT_EPOCH>533</REV_AT_EPOCH><BSTAR>-.16319393E-2</BSTAR><MEAN_MOTION_DOT>-.33085E-3</MEAN_MOTION_DOT><MEAN_MOTION_DDOT>0</MEAN_MOTION_DDOT></tleParameters></data></segment></body></omm>
<omm id="CCSDS_OMM_VERS" version="2.0">
<header><CREATION_DATE/><ORIGINATOR/></header><body><segment><metadata><OBJECT_NAME>KUIPER-00012</OBJECT_NAME><OBJECT_ID>2025-088E</OBJECT_ID><CENTER_NAME>EARTH</CENTER_NAME><REF_FRAME>TEME</REF_FRAME><TIME_SYSTEM>UTC</TIME_SYSTEM><MEAN_ELEMENT_THEORY>SGP4</MEAN_ELEMENT_THEORY></metadata><data><meanElements><EPOCH>2025-09-09T22:26:05.243424</EPOCH><MEAN_MOTION>15.32443314</MEAN_MOTION><ECCENTRICITY>.00102761</ECCENTRICITY><INCLINATION>51.8578</INCLINATION><RA_OF_ASC_NODE>172.0619</RA_OF_ASC_NODE><ARG_OF_PERICENTER>240.6565</ARG_OF_PERICENTER><MEAN_ANOMALY>119.3393</MEAN_ANOMALY></meanElements><tleParameters><EPHEMERIS_TYPE>0</EPHEMERIS_TYPE><CLASSIFICATION_TYPE>U</CLASSIFICATION_TYPE><NORAD_CAT_ID>63728</NORAD_CAT_ID><ELEMENT_SET_NO>999</ELEMENT_SET_NO><REV_AT_EPOCH>2091</REV_AT_EPOCH><BSTAR>-.26277942E-2</BSTAR><MEAN_MOTION_DOT>-.83153E-3</MEAN_MOTION_DOT><MEAN_MOTION_DDOT>0</MEAN_MOTION_DDOT></tleParameters></data></segment></body></omm>
<omm id="CCSDS_OMM_VERS" version="2.0">
<header><CREATION_DATE/><ORIGINATOR/></header><body><segment><metadata><OBJECT_NAME>KUIPER-00013</OBJECT_NAME><OBJECT_ID>2025-088F</OBJECT_ID><CENTER_NAME>EARTH</CENTER_NAME><REF_FRAME>TEME</REF_FRAME><TIME_SYSTEM>UTC</TIME_SYSTEM><MEAN_ELEMENT_THEORY>SGP4</MEAN_ELEMENT_THEORY></metadata><data><meanElements><EPOCH>2025-09-09T06:16:49.468224</EPOCH><MEAN_MOTION>14.79959135</MEAN_MOTION><ECCENTRICITY>.00083294</ECCENTRICITY><INCLINATION>51.9018</INCLINATION><RA_OF_ASC_NODE>190.3406</RA_OF_ASC_NODE><ARG_OF_PERICENTER>152.4833</ARG_OF_PERICENTER><MEAN_ANOMALY>207.6572</MEAN_ANOMALY></meanElements><tleParameters><EPHEMERIS_TYPE>0</EPHEMERIS_TYPE><CLASSIFICATION_TYPE>U</CLASSIFICATION_TYPE><NORAD_CAT_ID>63729</NORAD_CAT_ID><ELEMENT_SET_NO>999</ELEMENT_SET_NO><REV_AT_EPOCH>2070</REV_AT_EPOCH><BSTAR>.144979E-2</BSTAR><MEAN_MOTION_DOT>.1086E-3</MEAN_MOTION_DOT><MEAN_MOTION_DDOT>0</MEAN_MOTION_DDOT></tleParameters></data></segment></body></omm>
<omm id="CCSDS_OMM_VERS" version="2.0">
<header><CREATION_DATE/><ORIGINATOR/></header><body><segment><metadata><OBJECT_NAME>KUIPER-00014</OBJECT_NAME><OBJECT_ID>2025-088G</OBJECT_ID><CENTER_NAME>EARTH</CENTER_NAME><REF_FRAME>TEME</REF_FRAME><TIME_SYSTEM>UTC</TIME_SYSTEM><MEAN_ELEMENT_THEORY>SGP4</MEAN_ELEMENT_THEORY></metadata><data><meanElements><EPOCH>2025-09-09T02:59:57.521184</EPOCH><MEAN_MOTION>14.79944430</MEAN_MOTION><ECCENTRICITY>.00084013</ECCENTRICITY><INCLINATION>51.9031</INCLINATION><RA_OF_ASC_NODE>191.9107</RA_OF_ASC_NODE><ARG_OF_PERICENTER>212.0231</ARG_OF_PERICENTER><MEAN_ANOMALY>148.0221</MEAN_ANOMALY></meanElements><tleParameters><EPHEMERIS_TYPE>0</EPHEMERIS_TYPE><CLASSIFICATION_TYPE>U</CLASSIFICATION_TYPE><NORAD_CAT_ID>63730</NORAD_CAT_ID><ELEMENT_SET_NO>999</ELEMENT_SET_NO><REV_AT_EPOCH>2048</REV_AT_EPOCH><BSTAR>.28494271E-3</BSTAR><MEAN_MOTION_DOT>.1951E-4</MEAN_MOTION_DOT><MEAN_MOTION_DDOT>0</MEAN_MOTION_DDOT></tleParameters></data></segment></body></omm>
<omm id="CCSDS_OMM_VERS" version="2.0">
<header><CREATION_DATE/><ORIGINATOR/></header><body><segment><metadata><OBJECT_NAME>KUIPER-00015</OBJECT_NAME><OBJECT_ID>2025-088H</OBJECT_ID><CENTER_NAME>EARTH</CENTER_NAME><REF_FRAME>TEME</REF_FRAME><TIME_SYSTEM>UTC</TIME_SYSTEM><MEAN_ELEMENT_THEORY>SGP4</MEAN_ELEMENT_THEORY></metadata><data><meanElements><EPOCH>2025-09-09T06:30:01.864224</EPOCH><MEAN_MOTION>14.81322777</MEAN_MOTION><ECCENTRICITY>.00101744</ECCENTRICITY><INCLINATION>51.8992</INCLINATION><RA_OF_ASC_NODE>203.3755</RA_OF_ASC_NODE><ARG_OF_PERICENTER>195.3857</ARG_OF_PERICENTER><MEAN_ANOMALY>164.6798</MEAN_ANOMALY></meanElements><tleParameters><EPHEMERIS_TYPE>0</EPHEMERIS_TYPE><CLASSIFICATION_TYPE>U</CLASSIFICATION_TYPE><NORAD_CAT_ID>63731</NORAD_CAT_ID><ELEMENT_SET_NO>999</ELEMENT_SET_NO><REV_AT_EPOCH>2079</REV_AT_EPOCH><BSTAR>.30235453E-3</BSTAR><MEAN_MOTION_DOT>.2159E-4</MEAN_MOTION_DOT><MEAN_MOTION_DDOT>0</MEAN_MOTION_DDOT></tleParameters></data></segment></body></omm>

</ndm>
